{"type": "FeatureCollection", "features": [ {"type": "Feature", "properties": {"norad_id": 30756, "name": "FENGYUN 1C DEB", "group": "fengyun-1c-debris", "lat": 77.25235716666285, "lon": -0.24486510168440864, "alt_km": 829.0477521435314, "timestamp": "2025-12-02T21:34:01.549712+00:00", "meta": {"OBJECT_NAME": "FENGYUN 1C DEB", "OBJECT_ID": "1999-025ATS", "EPOCH": "2025-12-01T03:07:39.959904", "MEAN_MOTION": 14.18173809, "ECCENTRICITY": 0.00708233, "INCLINATION": 98.9924, "RA_OF_ASC_NODE": 42.3861, "ARG_OF_PERICENTER": 350.1374, "MEAN_ANOMALY": 67.0548, "EPHEMERIS_TYPE": 0, "CLASSIFICATION_TYPE": "U", "NORAD_CAT_ID": 30756, "ELEMENT_SET_NO": 999, "REV_AT_EPOCH": 96240, "BSTAR": 0.0014052244, "MEAN_MOTION_DOT": 2.914e-05, "MEAN_MOTION_DDOT": 0}, "tle": {"line1": "1 30756U 99025ATS 25335.13032361  .00002914  00000+0  14052-2 0  9992", "line2": "2 30756  98.9924  42.3861 0070823 350.1374  67.0548 14.18173809962404"}}, "geometry": {"type": "Point", "coordinates": [-0.24486510168440864, 77.25235716666285]}}, {"type": "Feature", "properties": {"norad_id": 30758, "name": "FENGYUN 1C DEB", "group": "fengyun-1c-debris", "lat": 25.17809211338655, "lon": -80.26446870066853, "alt_km": 849.381877357162, "timestamp": "2025-12-02T21:34:01.549722+00:00", "meta": {"OBJECT_NAME": "FENGYUN 1C DEB", "OBJECT_ID": "1999-025ATU", "EPOCH": "2025-12-02T07:24:55.484928", "MEAN_MOTION": 14.17038507, "ECCENTRICITY": 0.0038765, "INCLINATION": 99.0184, "RA_OF_ASC_NODE": 94.8562, "ARG_OF_PERICENTER": 33.8215, "MEAN_ANOMALY": 353.8339, "EPHEMERIS_TYPE": 0, "CLASSIFICATION_TYPE": "U", "NORAD_CAT_ID": 30758, "ELEMENT_SET_NO": 999, "REV_AT_EPOCH": 96343, "BSTAR": 0.0013181, "MEAN_MOTION_DOT": 2.625e-05, "MEAN_MOTION_DDOT": 0}, "tle": {"line1": "1 30758U 99025ATU 25336.30897552  .00002625  00000+0  13181-2 0  9996", "line2": "2 30758  99.0184  94.8562 0038765  33.8215 353.8339 14.17038507963436"}}, "geometry": {"type": "Point", "coordinates": [-80.26446870066853, 25.17809211338655]}}, {"type": "Feature", "properties": {"norad_id": 30759, "name": "FENGYUN 1C DEB", "group": "fengyun-1c-debris", "lat": -25.64033819679724, "lon": 88.10733792555011, "alt_km": 723.1832691181153, "timestamp": "2025-12-02T21:34:01.549732+00:00", "meta": {"OBJECT_NAME": "FENGYUN 1C DEB", "OBJECT_ID": "1999-025ATV", "EPOCH": "2025-12-02T06:56:22.115040", "MEAN_MOTION": 14.54130912, "ECCENTRICITY": 0.0009678, "INCLINATION": 99.2568, "RA_OF_ASC_NODE": 82.9442, "ARG_OF_PERICENTER": 193.3188, "MEAN_ANOMALY": 191.9566, "EPHEMERIS_TYPE": 0, "CLASSIFICATION_TYPE": "U", "NORAD_CAT_ID": 30759, "ELEMENT_SET_NO": 999, "REV_AT_EPOCH": 97503, "BSTAR": 0.0032845, "MEAN_MOTION_DOT": 0.00013866, "MEAN_MOTION_DDOT": 0}, "tle": {"line1": "1 30759U 99025ATV 25336.28914485  .00013866  00000+0  32845-2 0  9996", "line2": "2 30759  99.2568  82.9442 0009678 193.3188 191.9566 14.54130912975038"}}, "geometry": {"type": "Point", "coordinates": [88.10733792555011, -25.64033819679724]}}, {"type": "Feature", "properties": {"norad_id": 30760, "name": "FENGYUN 1C DEB", "group": "fengyun-1c-debris", "lat": -47.7370069152261, "lon": -16.31217056863702, "alt_km": 862.9620647232769, "timestamp": "2025-12-02T21:34:01.549743+00:00", "meta": {"OBJECT_NAME": "FENGYUN 1C DEB", "OBJECT_ID": "1999-025ATW", "EPOCH": "2025-12-02T11:32:31.323840", "MEAN_MOTION": 14.05168124, "ECCENTRICITY": 0.00533, "INCLINATION": 98.8222, "RA_OF_ASC_NODE": 333.4416, "ARG_OF_PERICENTER": 12.2904, "MEAN_ANOMALY": 347.9551, "EPHEMERIS_TYPE": 0, "CLASSIFICATION_TYPE": "U", "NORAD_CAT_ID": 30760, "ELEMENT_SET_NO": 999, "REV_AT_EPOCH": 96078, "BSTAR": 0.00033375, "MEAN_MOTION_DOT": 5.03e-06, "MEAN_MOTION_DDOT": 0}, "tle": {"line1": "1 30760U 99025ATW 25336.48091810  .00000503  00000+0  33375-3 0  9992", "line2": "2 30760  98.8222 333.4416 0053300  12.2904 347.9551 14.05168124960788"}}, "geometry": {"type": "Point", "coordinates": [-16.31217056863702, -47.7370069152261]}}, {"type": "Feature", "properties": {"norad_id": 30761, "name": "FENGYUN 1C DEB", "group": "fengyun-1c-debris", "lat": 60.12834302972703, "lon": -113.35198358809384, "alt_km": 754.5349465229083, "timestamp": "2025-12-02T21:34:01.549753+00:00", "meta": {"OBJECT_NAME": "FENGYUN 1C DEB", "OBJECT_ID": "1999-025ATX", "EPOCH": "2025-12-02T01:12:49.007808", "MEAN_MOTION": 14.35655819, "ECCENTRICITY": 0.00853197, "INCLINATION": 98.9644, "RA_OF_ASC_NODE": 261.7184, "ARG_OF_PERICENTER": 345.2281, "MEAN_ANOMALY": 14.6412, "EPHEMERIS_TYPE": 0, "CLASSIFICATION_TYPE": "U", "NORAD_CAT_ID": 30761, "ELEMENT_SET_NO": 999, "REV_AT_EPOCH": 97588, "BSTAR": 0.0013418271, "MEAN_MOTION_DOT": 3.989e-05, "MEAN_MOTION_DDOT": 0}, "tle": {"line1": "1 30761U 99025ATX 25336.05056722  .00003989  00000+0  13418-2 0  9995", "line2": "2 30761  98.9644 261.7184 0085319 345.2281  14.6412 14.35655819975881"}}, "geometry": {"type": "Point", "coordinates": [-113.35198358809384, 60.12834302972703]}}, {"type": "Feature", "properties": {"norad_id": 30762, "name": "FENGYUN 1C DEB", "group": "fengyun-1c-debris", "lat": 52.53672227709783, "lon": 159.76841783990707, "alt_km": 1034.147476239622, "timestamp": "2025-12-02T21:34:01.549763+00:00", "meta": {"OBJECT_NAME": "FENGYUN 1C DEB", "OBJECT_ID": "1999-025ATY", "EPOCH": "2025-12-01T22:53:41.949600", "MEAN_MOTION": 13.98059993, "ECCENTRICITY": 0.01982722, "INCLINATION": 98.8743, "RA_OF_ASC_NODE": 327.0906, "ARG_OF_PERICENTER": 325.0005, "MEAN_ANOMALY": 88.9159, "EPHEMERIS_TYPE": 0, "CLASSIFICATION_TYPE": "U", "NORAD_CAT_ID": 30762, "ELEMENT_SET_NO": 999, "REV_AT_EPOCH": 95487, "BSTAR": 0.00059620841, "MEAN_MOTION_DOT": 9.58e-06, "MEAN_MOTION_DDOT": 0}, "tle": {"line1": "1 30762U 99025ATY 25335.95395775  .00000958  00000+0  59621-3 0  9998", "line2": "2 30762  98.8743 327.0906 0198272 325.0005  88.9159 13.98059993954879"}}, "geometry": {"type": "Point", "coordinates": [159.76841783990707, 52.53672227709783]}}, {"type": "Feature", "properties": {"norad_id": 30763, "name": "FENGYUN 1C DEB", "group": "fengyun-1c-debris", "lat": -55.23475133338743, "lon": 60.57909704845229, "alt_km": 683.2382862067225, "timestamp": "2025-12-02T21:34:01.549773+00:00", "meta": {"OBJECT_NAME": "FENGYUN 1C DEB", "OBJECT_ID": "1999-025ATZ", "EPOCH": "2025-12-02T03:59:11.453856", "MEAN_MOTION": 14.60403244, "ECCENTRICITY": 0.00220787, "INCLINATION": 98.894, "RA_OF_ASC_NODE": 46.7553, "ARG_OF_PERICENTER": 300.452, "MEAN_ANOMALY": 114.3262, "EPHEMERIS_TYPE": 0, "CLASSIFICATION_TYPE": "U", "NORAD_CAT_ID": 30763, "ELEMENT_SET_NO": 999, "REV_AT_EPOCH": 96990, "BSTAR": 0.0048275973, "MEAN_MOTION_DOT": 0.00023475, "MEAN_MOTION_DDOT": 0}, "tle": {"line1": "1 30763U 99025ATZ 25336.16610479  .00023475  00000+0  48276-2 0  9996", "line2": "2 30763  98.8940  46.7553 0022078 300.4520 114.3262 14.60403244969902"}}, "geometry": {"type": "Point", "coordinates": [60.57909704845229, -55.23475133338743]}}, {"type": "Feature", "properties": {"norad_id": 30764, "name": "FENGYUN 1C DEB", "group": "fengyun-1c-debris", "lat": -64.05455969608384, "lon": -35.67418911169715, "alt_km": 488.58194750872735, "timestamp": "2025-12-02T21:34:01.549783+00:00", "meta": {"OBJECT_NAME": "FENGYUN 1C DEB", "OBJECT_ID": "1999-025AUA", "EPOCH": "2025-12-02T09:17:00.181824", "MEAN_MOTION": 15.2812997, "ECCENTRICITY": 0.007585, "INCLINATION": 98.7765, "RA_OF_ASC_NODE": 305.2098, "ARG_OF_PERICENTER": 205.7732, "MEAN_ANOMALY": 153.9717, "EPHEMERIS_TYPE": 0, "CLASSIFICATION_TYPE": "U", "NORAD_CAT_ID": 30764, "ELEMENT_SET_NO": 999, "REV_AT_EPOCH": 1064, "BSTAR": 0.0011919, "MEAN_MOTION_DOT": 0.00035649, "MEAN_MOTION_DDOT": 0}, "tle": {"line1": "1 30764U 99025AUA 25336.38680766  .00035649  00000+0  11919-2 0  9997", "line2": "2 30764  98.7765 305.2098 0075850 205.7732 153.9717 15.28129970 10640"}}, "geometry": {"type": "Point", "coordinates": [-35.67418911169715, -64.05455969608384]}}, {"type": "Feature", "properties": {"norad_id": 30765, "name": "FENGYUN 1C DEB", "group": "fengyun-1c-debris", "lat": 81.15902252139084, "lon": -72.86969229231296, "alt_km": 876.5844283921306, "timestamp": "2025-12-02T21:34:01.549793+00:00", "meta": {"OBJECT_NAME": "FENGYUN 1C DEB", "OBJECT_ID": "1999-025AUB", "EPOCH": "2025-12-02T02:35:30.184800", "MEAN_MOTION": 14.14655624, "ECCENTRICITY": 0.00677474, "INCLINATION": 98.7891, "RA_OF_ASC_NODE": 22.2709, "ARG_OF_PERICENTER": 239.3826, "MEAN_ANOMALY": 147.6613, "EPHEMERIS_TYPE": 0, "CLASSIFICATION_TYPE": "U", "NORAD_CAT_ID": 30765, "ELEMENT_SET_NO": 999, "REV_AT_EPOCH": 96672, "BSTAR": 0.00095684167, "MEAN_MOTION_DOT": 1.837e-05, "MEAN_MOTION_DDOT": 0}, "tle": {"line1": "1 30765U 99025AUB 25336.10798825  .00001837  00000+0  95684-3 0  9998", "line2": "2 30765  98.7891  22.2709 0067747 239.3826 147.6613 14.14655624966727"}}, "geometry": {"type": "Point", "coordinates": [-72.86969229231296, 81.15902252139084]}}, {"type": "Feature", "properties": {"norad_id": 30766, "name": "FENGYUN 1C DEB", "group": "fengyun-1c-debris", "lat": 27.047410848089676, "lon": 162.12100990708674, "alt_km": 821.2259547663843, "timestamp": "2025-12-02T21:34:01.549803+00:00", "meta": {"OBJECT_NAME": "FENGYUN 1C DEB", "OBJECT_ID": "1999-025AUC", "EPOCH": "2025-11-29T06:02:29.152320", "MEAN_MOTION": 14.0947949, "ECCENTRICITY": 0.0083655, "INCLINATION": 98.6728, "RA_OF_ASC_NODE": 334.1388, "ARG_OF_PERICENTER": 112.2766, "MEAN_ANOMALY": 264.9384, "EPHEMERIS_TYPE": 0, "CLASSIFICATION_TYPE": "U", "NORAD_CAT_ID": 30766, "ELEMENT_SET_NO": 999, "REV_AT_EPOCH": 62607, "BSTAR": 0.00061885465, "MEAN_MOTION_DOT": 1.075e-05, "MEAN_MOTION_DDOT": 0}, "tle": {"line1": "1 30766U 99025AUC 25333.25172630  .00001075  00000+0  61885-3 0  9992", "line2": "2 30766  98.6728 334.1388 0083655 112.2766 264.9384 14.09479490626070"}}, "geometry": {"type": "Point", "coordinates": [162.12100990708674, 27.047410848089676]}}]}